CCSDS_OMM_VERS = 2.0
CREATION_DATE  = 
ORIGINATOR     = 

OBJECT_NAME    = SL-4 R/B
OBJECT_ID      = 2014-021B
CENTER_NAME    = EARTH
REF_FRAME      = TEME
TIME_SYSTEM    = UTC
MEAN_ELEMENT_THEORY = SGP/SGP4

EPOCH          = 2026-01-29T18:51:29.812608
MEAN_MOTION    = 15.37965242
ECCENTRICITY   = .00990035
INCLINATION    = 51.6056
RA_OF_ASC_NODE = 166.8823
ARG_OF_PERICENTER = 321.0887
MEAN_ANOMALY   = 38.2998

EPHEMERIS_TYPE = 0
CLASSIFICATION_TYPE = U
NORAD_CAT_ID   = 39679
ELEMENT_SET_NO = 999
REV_AT_EPOCH   = 65028
BSTAR          = .38491732E-3
MEAN_MOTION_DOT = .1687E-3
MEAN_MOTION_DDOT = 0

CCSDS_OMM_VERS = 2.0
CREATION_DATE  = 
ORIGINATOR     = 

OBJECT_NAME    = ALOS-2
OBJECT_ID      = 2014-029A
CENTER_NAME    = EARTH
REF_FRAME      = TEME
TIME_SYSTEM    = UTC
MEAN_ELEMENT_THEORY = SGP/SGP4

EPOCH          = 2026-01-30T13:46:30.709056
MEAN_MOTION    = 14.79469202
ECCENTRICITY   = .0001469
INCLINATION    = 97.9228
RA_OF_ASC_NODE = 129.7192
ARG_OF_PERICENTER = 101.8840
MEAN_ANOMALY   = 258.2536

EPHEMERIS_TYPE = 0
CLASSIFICATION_TYPE = U
NORAD_CAT_ID   = 39766
ELEMENT_SET_NO = 999
REV_AT_EPOCH   = 63123
BSTAR          = .26336E-4
MEAN_MOTION_DOT = .145E-5
MEAN_MOTION_DDOT = 0

CCSDS_OMM_VERS = 2.0
CREATION_DATE  = 
ORIGINATOR     = 

OBJECT_NAME    = YAOGAN-29
OBJECT_ID      = 2015-069A
CENTER_NAME    = EARTH
REF_FRAME      = TEME
TIME_SYSTEM    = UTC
MEAN_ELEMENT_THEORY = SGP/SGP4

EPOCH          = 2026-01-30T12:53:33.100224
MEAN_MOTION    = 14.82949198
ECCENTRICITY   = .0002839
INCLINATION    = 98.0192
RA_OF_ASC_NODE = 58.8585
ARG_OF_PERICENTER = 100.2514
MEAN_ANOMALY   = 259.9019

EPHEMERIS_TYPE = 0
CLASSIFICATION_TYPE = U
NORAD_CAT_ID   = 41038
ELEMENT_SET_NO = 999
REV_AT_EPOCH   = 55022
BSTAR          = .64095E-4
MEAN_MOTION_DOT = .466E-5
MEAN_MOTION_DDOT = 0

CCSDS_OMM_VERS = 2.0
CREATION_DATE  = 
ORIGINATOR     = 

OBJECT_NAME    = ASTRO-H (HITOMI)
OBJECT_ID      = 2016-012A
CENTER_NAME    = EARTH
REF_FRAME      = TEME
TIME_SYSTEM    = UTC
MEAN_ELEMENT_THEORY = SGP/SGP4

EPOCH          = 2026-01-30T06:58:51.401280
MEAN_MOTION    = 15.09719207
ECCENTRICITY   = .0009949
INCLINATION    = 30.9984
RA_OF_ASC_NODE = 244.2924
ARG_OF_PERICENTER = 307.0201
MEAN_ANOMALY   = 52.9527

EPHEMERIS_TYPE = 0
CLASSIFICATION_TYPE = U
NORAD_CAT_ID   = 41337
ELEMENT_SET_NO = 999
REV_AT_EPOCH   = 54642
BSTAR          = .24763E-3
MEAN_MOTION_DOT = .419E-4
MEAN_MOTION_DDOT = 0

CCSDS_OMM_VERS = 2.0
CREATION_DATE  = 
ORIGINATOR     = 

OBJECT_NAME    = HXMT (HUIYAN)
OBJECT_ID      = 2017-034A
CENTER_NAME    = EARTH
REF_FRAME      = TEME
TIME_SYSTEM    = UTC
MEAN_ELEMENT_THEORY = SGP/SGP4

EPOCH          = 2026-01-30T12:40:25.348224
MEAN_MOTION    = 15.16955154
ECCENTRICITY   = .0032167
INCLINATION    = 43.0120
RA_OF_ASC_NODE = 228.7542
ARG_OF_PERICENTER = 350.9835
MEAN_ANOMALY   = 9.0432

EPHEMERIS_TYPE = 0
CLASSIFICATION_TYPE = U
NORAD_CAT_ID   = 42758
ELEMENT_SET_NO = 999
REV_AT_EPOCH   = 47674
BSTAR          = .30634E-3
MEAN_MOTION_DOT = .5999E-4
MEAN_MOTION_DDOT = 0

CCSDS_OMM_VERS = 2.0
CREATION_DATE  = 
ORIGINATOR     = 

OBJECT_NAME    = CZ-2C R/B
OBJECT_ID      = 2018-054D
CENTER_NAME    = EARTH
REF_FRAME      = TEME
TIME_SYSTEM    = UTC
MEAN_ELEMENT_THEORY = SGP/SGP4

EPOCH          = 2026-01-29T19:06:14.029344
MEAN_MOTION    = 15.90042907
ECCENTRICITY   = .00134079
INCLINATION    = 35.1287
RA_OF_ASC_NODE = 211.8047
ARG_OF_PERICENTER = 285.1066
MEAN_ANOMALY   = 74.8188

EPHEMERIS_TYPE = 0
CLASSIFICATION_TYPE = U
NORAD_CAT_ID   = 43521
ELEMENT_SET_NO = 999
REV_AT_EPOCH   = 42266
BSTAR          = .92574192E-3
MEAN_MOTION_DOT = .292678E-2
MEAN_MOTION_DDOT = .31860176E-4

CCSDS_OMM_VERS = 2.0
CREATION_DATE  = 
ORIGINATOR     = 

OBJECT_NAME    = H-2A R/B
OBJECT_ID      = 2018-084L
CENTER_NAME    = EARTH
REF_FRAME      = TEME
TIME_SYSTEM    = UTC
MEAN_ELEMENT_THEORY = SGP/SGP4

EPOCH          = 2026-01-30T11:22:44.171904
MEAN_MOTION    = 15.39638004
ECCENTRICITY   = .0026065
INCLINATION    = 98.8763
RA_OF_ASC_NODE = 239.7427
ARG_OF_PERICENTER = 154.4504
MEAN_ANOMALY   = 205.8032

EPHEMERIS_TYPE = 0
CLASSIFICATION_TYPE = U
NORAD_CAT_ID   = 43682
ELEMENT_SET_NO = 999
REV_AT_EPOCH   = 39989
BSTAR          = .67514E-3
MEAN_MOTION_DOT = .26889E-3
MEAN_MOTION_DDOT = 0

CCSDS_OMM_VERS = 2.0
CREATION_DATE  = 
ORIGINATOR     = 

OBJECT_NAME    = SAOCOM 1B
OBJECT_ID      = 2020-059A
CENTER_NAME    = EARTH
REF_FRAME      = TEME
TIME_SYSTEM    = UTC
MEAN_ELEMENT_THEORY = SGP/SGP4

EPOCH          = 2026-01-30T12:19:05.511072
MEAN_MOTION    = 14.82151239
ECCENTRICITY   = .0001342
INCLINATION    = 97.8862
RA_OF_ASC_NODE = 218.3263
ARG_OF_PERICENTER = 83.8656
MEAN_ANOMALY   = 276.2710

EPHEMERIS_TYPE = 0
CLASSIFICATION_TYPE = U
NORAD_CAT_ID   = 46265
ELEMENT_SET_NO = 999
REV_AT_EPOCH   = 29309
BSTAR          = .63542E-4
MEAN_MOTION_DOT = .454E-5
MEAN_MOTION_DDOT = 0

CCSDS_OMM_VERS = 2.0
CREATION_DATE  = 
ORIGINATOR     = 

OBJECT_NAME    = CSS (TIANHE)
OBJECT_ID      = 2021-035A
CENTER_NAME    = EARTH
REF_FRAME      = TEME
TIME_SYSTEM    = UTC
MEAN_ELEMENT_THEORY = SGP/SGP4

EPOCH          = 2026-01-30T04:06:26.862336
MEAN_MOTION    = 15.61350410
ECCENTRICITY   = .00090867
INCLINATION    = 41.4674
RA_OF_ASC_NODE = 82.2287
ARG_OF_PERICENTER = 36.5911
MEAN_ANOMALY   = 323.5548

EPHEMERIS_TYPE = 0
CLASSIFICATION_TYPE = U
NORAD_CAT_ID   = 48274
ELEMENT_SET_NO = 999
REV_AT_EPOCH   = 27159
BSTAR          = .3748084E-3
MEAN_MOTION_DOT = .3269E-3
MEAN_MOTION_DDOT = 0

CCSDS_OMM_VERS = 2.0
CREATION_DATE  = 
ORIGINATOR     = 

OBJECT_NAME    = COSMOS 2550
OBJECT_ID      = 2021-056A
CENTER_NAME    = EARTH
REF_FRAME      = TEME
TIME_SYSTEM    = UTC
MEAN_ELEMENT_THEORY = SGP/SGP4

EPOCH          = 2026-01-26T03:10:39.828288
MEAN_MOTION    = 15.33840202
ECCENTRICITY   = .00083094
INCLINATION    = 67.1441
RA_OF_ASC_NODE = 169.6578
ARG_OF_PERICENTER = 269.8947
MEAN_ANOMALY   = 90.1255

EPHEMERIS_TYPE = 0
CLASSIFICATION_TYPE = U
NORAD_CAT_ID   = 48865
ELEMENT_SET_NO = 999
REV_AT_EPOCH   = 25693
BSTAR          = .322698E-6
MEAN_MOTION_DOT = -.181E-5
MEAN_MOTION_DDOT = 0

CCSDS_OMM_VERS = 2.0
CREATION_DATE  = 
ORIGINATOR     = 

OBJECT_NAME    = CZ-2C R/B
OBJECT_ID      = 2022-058K
CENTER_NAME    = EARTH
REF_FRAME      = TEME
TIME_SYSTEM    = UTC
MEAN_ELEMENT_THEORY = SGP/SGP4

EPOCH          = 2026-01-30T10:01:06.594816
MEAN_MOTION    = 15.51579278
ECCENTRICITY   = .0042457
INCLINATION    = 50.1883
RA_OF_ASC_NODE = 154.7583
ARG_OF_PERICENTER = 38.8393
MEAN_ANOMALY   = 321.5614

EPHEMERIS_TYPE = 0
CLASSIFICATION_TYPE = U
NORAD_CAT_ID   = 52794
ELEMENT_SET_NO = 999
REV_AT_EPOCH   = 20418
BSTAR          = .56996E-3
MEAN_MOTION_DOT = .35448E-3
MEAN_MOTION_DDOT = 0

