SL-4 R/B                
1 39679U 14021B   26029.78576172  .00016870  00000+0  38492-3 0  9994
2 39679  51.6056 166.8823 0099003 321.0887  38.2998 15.37965242650287
ALOS-2                  
1 39766U 14029A   26030.57396654  .00000145  00000+0  26336-4 0  9996
2 39766  97.9228 129.7192 0001469 101.8840 258.2536 14.79469202631233
YAOGAN-29               
1 41038U 15069A   26030.53718866  .00000466  00000+0  64095-4 0  9995
2 41038  98.0192  58.8585 0002839 100.2514 259.9019 14.82949198550225
ASTRO-H (HITOMI)        
1 41337U 16012A   26030.29087270  .00004190  00000+0  24763-3 0  9992
2 41337  30.9984 244.2924 0009949 307.0201  52.9527 15.09719207546426
HXMT (HUIYAN)           
1 42758U 17034A   26030.52807116  .00005999  00000+0  30634-3 0  9992
2 42758  43.0120 228.7542 0032167 350.9835   9.0432 15.16955154476748
CZ-2C R/B               
1 43521U 18054D   26029.79599571  .00292678  31860-4  92574-3 0  9990
2 43521  35.1287 211.8047 0013407 285.1066  74.8188 15.90042907422662
H-2A R/B                
1 43682U 18084L   26030.47412236  .00026889  00000+0  67514-3 0  9992
2 43682  98.8763 239.7427 0026065 154.4504 205.8032 15.39638004399899
SAOCOM 1B               
1 46265U 20059A   26030.51325823  .00000454  00000+0  63542-4 0  9995
2 46265  97.8862 218.3263 0001342  83.8656 276.2710 14.82151239293090
CSS (TIANHE)            
1 48274U 21035A   26030.17114424  .00032690  00000+0  37481-3 0  9996
2 48274  41.4674  82.2287 0009086  36.5911 323.5548 15.61350410271590
COSMOS 2550             
1 48865U 21056A   26026.13240542 -.00000181  00000+0  32270-6 0  9992
2 48865  67.1441 169.6578 0008309 269.8947  90.1255 15.33840202256938
CZ-2C R/B               
1 52794U 22058K   26030.41743744  .00035448  00000+0  56996-3 0  9990
2 52794  50.1883 154.7583 0042457  38.8393 321.5614 15.51579278204180
